{
"type": "FeatureCollection",
"name": "example_germany",
"crs": { "type": "name", "properties": { "name": "urn:ogc:def:crs:OGC:1.3:CRS84" } },
"features": [
{ "type": "Feature", "properties": { "region": "Germany" }, "geometry": { "type": "MultiPolygon", "coordinates": [ [ [ [ 6.350754028000097, 49.566588034000048 ], [ 6.417933390000144, 49.63914174500006 ], [ 6.402740519000133, 49.655781555 ], [ 6.499685506000077, 49.712212219000023 ], [ 6.485526163000117, 49.733761292000068 ], [ 6.502579387000139, 49.795669658000108 ], [ 6.397056111000097, 49.808588766000113 ], [ 6.33442427500006, 49.8402147420001 ], [ 6.30259159400012, 49.834943747000082 ], [ 6.286778605000109, 49.861040345000063 ], [ 6.222699829000106, 49.887136943000044 ], [ 6.172677043000107, 49.956228333000027 ], [ 6.161928345000092, 49.942482402000095 ], [ 6.096402629000096, 50.048625794000131 ], [ 6.129475545000076, 50.134046937000036 ], [ 6.121310668000149, 50.161590475000125 ], [ 6.165132284000066, 50.181899312000056 ], [ 6.146838827000096, 50.214042054000075 ], [ 6.271792439000137, 50.267423808000089 ], [ 6.285951782000097, 50.303855692000084 ], [ 6.374525187000074, 50.31548289100003 ], [ 6.337731567000077, 50.368089498000032 ], [ 6.351167440000012, 50.43356353800003 ], [ 6.32326216600012, 50.466016337000028 ], [ 6.336904744000037, 50.481002502000095 ], [ 6.255566040000133, 50.494593404000099 ], [ 6.207196900000099, 50.486325175000061 ], [ 6.182598917000121, 50.506582337000069 ], [ 6.190557088000077, 50.515212301000091 ], [ 6.170816691000113, 50.517951152000037 ], [ 6.177327922000075, 50.530198466000073 ], [ 6.160688110000052, 50.543582663 ], [ 6.232931763000096, 50.587145894000045 ], [ 6.249054809000086, 50.614431051000068 ], [ 6.159447876000115, 50.622389222000024 ], [ 6.147769002000047, 50.636755270000023 ], [ 6.161101521000063, 50.642181296 ], [ 6.081003052000113, 50.713494772000089 ], [ 6.011549926000043, 50.708533835000125 ], [ 6.010826457000036, 50.737059225000067 ], [ 5.992739705000133, 50.744448955000095 ], [ 5.997080525000115, 50.762949117000019 ], [ 5.968761841000116, 50.794626770000022 ], [ 5.998320760000041, 50.800724589000069 ], [ 6.009276164000113, 50.840463765000081 ], [ 6.056715129000111, 50.852659404000079 ], [ 6.063743124000041, 50.907539775000018 ], [ 5.999871053000078, 50.929398906000031 ], [ 6.003695109000091, 50.973737284 ], [ 5.874607381000118, 50.965365703000018 ], [ 5.852489868000106, 51.042751160000037 ], [ 5.88049849500004, 51.052052918000058 ], [ 5.937962687000038, 51.03094309500004 ], [ 5.982921183000144, 51.074687195000124 ], [ 6.147252238000107, 51.15225352 ], [ 6.12627160700012, 51.164578349000053 ], [ 6.157070760000067, 51.179254456000123 ], [ 6.084310344000102, 51.162692159000031 ], [ 6.060849243000121, 51.17090871200007 ], [ 6.056611776000096, 51.211707255000036 ], [ 6.147769002000047, 51.318160706000057 ], [ 6.193554321000079, 51.344515686000037 ], [ 6.207817016000149, 51.387665508000069 ], [ 6.192727499000057, 51.398956808000023 ], [ 6.205336548000105, 51.458436382000073 ], [ 6.19334761500005, 51.509337667000111 ], [ 6.086480754000092, 51.59553395600004 ], [ 6.099193156000069, 51.644471538000047 ], [ 6.008552694000116, 51.681187643 ], [ 6.02198856600009, 51.709506328000018 ], [ 6.012066691000086, 51.715862528000045 ], [ 5.939306274000103, 51.731882223000085 ], [ 5.964110962000063, 51.776556499000023 ], [ 5.928040812000063, 51.806735535000101 ], [ 6.084000284000126, 51.853657735000056 ], [ 6.156140584000127, 51.842056376000116 ], [ 6.09299198400015, 51.885309550000059 ], [ 6.1269950760001, 51.896730041000083 ], [ 6.225180298000083, 51.862546082000094 ], [ 6.264661092000011, 51.866189271000067 ], [ 6.287398722000091, 51.846164653000031 ], [ 6.341969034000016, 51.836682028000055 ], [ 6.344966268000121, 51.821101583000129 ], [ 6.382483358000115, 51.827586975000074 ], [ 6.378452596000045, 51.86011728900003 ], [ 6.462891887000069, 51.848360901000021 ], [ 6.528624308000133, 51.876421204000067 ], [ 6.743753296000079, 51.908331401000041 ], [ 6.81072595200007, 51.960576274000019 ], [ 6.809175659000061, 51.979541525000073 ], [ 6.675023641000109, 52.034809469 ], [ 6.679881225000116, 52.060466818000052 ], [ 6.711403849000106, 52.067288107000095 ], [ 6.749851115000126, 52.10286733000008 ], [ 6.830673055000091, 52.112892558000013 ], [ 6.884829956000118, 52.160331523000096 ], [ 7.026320027000054, 52.230637309000102 ], [ 7.012470744000098, 52.284949239000056 ], [ 7.048230835000112, 52.365073547000023 ], [ 6.973300008000137, 52.451373190000069 ], [ 6.9002295330001, 52.431917012999989 ], [ 6.714814494000109, 52.461553447000043 ], [ 6.695074097000145, 52.475609437000045 ], [ 6.671716349000121, 52.541677755000094 ], [ 6.743753296000079, 52.559712830000095 ], [ 6.70396244300008, 52.583070577000043 ], [ 6.701792032000071, 52.619114889000045 ], [ 6.73703536000005, 52.634695333000067 ], [ 6.865399617000037, 52.641955872000054 ], [ 7.018465210000045, 52.625987854000115 ], [ 7.036655314000058, 52.647381897000045 ], [ 7.061976766000043, 52.824011942000126 ], [ 7.161918986000103, 52.932635804000128 ], [ 7.19282149300011, 52.998006490000094 ], [ 7.171944214000121, 53.137713725000069 ], [ 7.195405314000112, 53.184997661000111 ], [ 7.194590691000087, 53.245021877000056 ], [ 7.233571811000047, 53.273627020000049 ], [ 7.229502800000091, 53.296576239000046 ], [ 7.254730665000068, 53.319525458000044 ], [ 7.36654707100007, 53.302801825000074 ], [ 7.302907748000052, 53.332749742000033 ], [ 7.038259311000047, 53.348578192000048 ], [ 7.023610873000052, 53.37641022300005 ], [ 7.023285352000073, 53.450506903000075 ], [ 7.051442905000044, 53.512600002000056 ], [ 7.119639519000089, 53.516302802000041 ], [ 7.141774936000047, 53.537176825000074 ], [ 7.086761915000068, 53.586859442000048 ], [ 7.226084832000083, 53.666489976000037 ], [ 7.305023634000065, 53.684800523000035 ], [ 7.458832227000073, 53.695135809000078 ], [ 7.503916863000086, 53.678656317000048 ], [ 7.951426629000082, 53.721909898000035 ], [ 8.031423373000052, 53.708075262000079 ], [ 8.024912957000083, 53.672552802000041 ], [ 8.052907748000052, 53.636297919000071 ], [ 8.127614780000044, 53.590765692000048 ], [ 8.119151238000086, 53.571926174000055 ], [ 8.167979363000086, 53.553208726000037 ], [ 8.155446811000047, 53.52602773600006 ], [ 8.058767123000052, 53.502020575000074 ], [ 8.086192254000082, 53.456122137000079 ], [ 8.152354363000086, 53.449774481000077 ], [ 8.205332879000082, 53.410711981000077 ], [ 8.25945071700005, 53.412298895000049 ], [ 8.315114780000044, 53.47492096600007 ], [ 8.320485873000052, 53.50922272300005 ], [ 8.291514519000089, 53.529364325000074 ], [ 8.231211785000085, 53.525213934000078 ], [ 8.248871290000068, 53.590277411000045 ], [ 8.270681186000047, 53.612860419000071 ], [ 8.329356316000087, 53.618109442000048 ], [ 8.387705925000091, 53.577134507000039 ], [ 8.55209394600007, 53.54360586100006 ], [ 8.49000084700009, 53.486395575000074 ], [ 8.485036655000044, 53.401190497000073 ], [ 8.504405144000089, 53.35805898600006 ], [ 8.497569207000083, 53.474758205000057 ], [ 8.556651238000086, 53.51821523600006 ], [ 8.56576582100007, 53.546698309000078 ], [ 8.508311394000089, 53.625148830000057 ], [ 8.48609459700009, 53.700425523000035 ], [ 8.573252800000091, 53.857652085000041 ], [ 8.651866082000083, 53.892482815000051 ], [ 8.782481316000087, 53.842474677000041 ], [ 8.86068769600007, 53.831000067000048 ], [ 9.016286655000044, 53.840521552000041 ], [ 9.114512566000087, 53.865139065000051 ], [ 9.274668816000087, 53.865139065000051 ], [ 9.402679884000065, 53.742417710000041 ], [ 9.484711134000065, 53.69009023600006 ], [ 9.498383009000065, 53.659857489000046 ], [ 9.567067905000044, 53.599595445000034 ], [ 9.69662519600007, 53.556626695000034 ], [ 9.832041863000086, 53.54360586100006 ], [ 9.782074415000068, 53.569728908000059 ], [ 9.692393425000091, 53.575913804000038 ], [ 9.58366946700005, 53.612453518000052 ], [ 9.550791863000086, 53.634588934000078 ], [ 9.532237175000091, 53.711167710000041 ], [ 9.435801629000082, 53.74868398600006 ], [ 9.395192905000044, 53.831000067000048 ], [ 9.257823113000086, 53.885565497000073 ], [ 9.029958530000044, 53.907131252000056 ], [ 8.984629754000082, 53.897040106000077 ], [ 8.916026238000086, 53.937404690000051 ], [ 8.83334394600007, 54.036444403000075 ], [ 8.890635613000086, 54.047796942000048 ], [ 8.997243686000047, 54.030218817000048 ], [ 9.018321160000085, 54.097886460000041 ], [ 8.974457227000073, 54.128078518000052 ], [ 8.977305535000085, 54.145697333000044 ], [ 8.95289147200009, 54.150091864000046 ], [ 8.86068769600007, 54.125189520000049 ], [ 8.812836134000065, 54.180487372000073 ], [ 8.846690300000091, 54.233547268000052 ], [ 8.83961022200009, 54.255560614000046 ], [ 8.922048373000052, 54.274237372000073 ], [ 8.963145379000082, 54.317613023000035 ], [ 8.881114129000082, 54.290269273000035 ], [ 8.887950066000087, 54.303941148000035 ], [ 8.738942905000044, 54.293890692000048 ], [ 8.678477410000085, 54.269191799000055 ], [ 8.623383009000065, 54.290106512000079 ], [ 8.599864129000082, 54.338080145000049 ], [ 8.695567254000082, 54.358587958000044 ], [ 8.650645379000082, 54.377997137000079 ], [ 8.634776238000086, 54.365423895000049 ], [ 8.629161004000082, 54.387681382000039 ], [ 8.648448113000086, 54.406398830000057 ], [ 8.88607832100007, 54.417792059000078 ], [ 9.004730665000068, 54.465887762000079 ], [ 9.011566602000073, 54.506333726000037 ], [ 8.878754102000073, 54.606512762000079 ], [ 8.82585696700005, 54.598130601000037 ], [ 8.819021030000044, 54.605617580000057 ], [ 8.85328209700009, 54.619289455000057 ], [ 8.805430535000085, 54.687567450000074 ], [ 8.688731316000087, 54.735296942000048 ], [ 8.694346550000091, 54.760239976000037 ], [ 8.642751498000052, 54.844183661000045 ], [ 8.660775934000071, 54.896311156000067 ], [ 8.904138224000064, 54.897942200000031 ], [ 9.194766480000055, 54.850399882000019 ], [ 9.244065796000143, 54.801772360000101 ], [ 9.385039103000054, 54.819394023000072 ], [ 9.451426629000082, 54.810370184000078 ], [ 9.579925977000073, 54.866278387000079 ], [ 9.583181186000047, 54.830267645000049 ], [ 9.734629754000082, 54.807318427000041 ], [ 9.801768425000091, 54.783392645000049 ], [ 9.823741082000083, 54.756740627000056 ], [ 9.895355665000068, 54.769476630000042 ], [ 9.891449415000068, 54.790269273000035 ], [ 9.947520379000082, 54.779527085000041 ], [ 10.018239780000044, 54.701239325000074 ], [ 9.97046959700009, 54.701239325000074 ], [ 9.92945397200009, 54.673895575000074 ], [ 10.039073113000086, 54.666815497000073 ], [ 10.026866082000083, 54.559963283000059 ], [ 9.965586785000085, 54.50617096600007 ], [ 9.840098504000082, 54.475287177000041 ], [ 9.883311394000089, 54.462103583000044 ], [ 10.143402540000068, 54.491848049000055 ], [ 10.203868035000085, 54.461004950000074 ], [ 10.183929884000065, 54.449367580000057 ], [ 10.191254102000073, 54.396714585000041 ], [ 10.141774936000047, 54.372259833000044 ], [ 10.155528191000087, 54.343410549000055 ], [ 10.141774936000047, 54.324408270000049 ], [ 10.180349155000044, 54.341131903000075 ], [ 10.22437584700009, 54.413804429000038 ], [ 10.318369988000086, 54.443304755000042 ], [ 10.601084832000083, 54.365423895000049 ], [ 10.690196160000085, 54.316229559000078 ], [ 10.731293165000068, 54.310207424000055 ], [ 10.77711022200009, 54.315130927000041 ], [ 10.93531334700009, 54.37954336100006 ], [ 11.018809441000087, 54.385891018000052 ], [ 10.975840691000087, 54.378404039000031 ], [ 11.033946160000085, 54.367621161000045 ], [ 11.104177280000044, 54.39288971600007 ], [ 11.135508660000085, 54.385891018000052 ], [ 11.087738477000073, 54.351752020000049 ], [ 11.066579623000052, 54.358587958000044 ], [ 11.094493035000085, 54.28351471600007 ], [ 11.090179884000065, 54.207993882000039 ], [ 11.066579623000052, 54.18390534100007 ], [ 10.892832879000082, 54.102525132000039 ], [ 10.805430535000085, 54.094875393000052 ], [ 10.752614780000044, 54.050116278000075 ], [ 10.799652540000068, 54.000555731000077 ], [ 10.875498894000089, 53.995428778000075 ], [ 10.887380405000044, 53.963934637000079 ], [ 10.922618035000085, 53.961371161000045 ], [ 11.053477410000085, 54.008490302000041 ], [ 11.175059441000087, 54.018011786000045 ], [ 11.204356316000087, 53.989243882000039 ], [ 11.245371941000087, 53.978420315000051 ], [ 11.242930535000085, 53.945217190000051 ], [ 11.293711785000085, 53.94086334800005 ], [ 11.334157748000052, 53.961371161000045 ], [ 11.457692905000044, 53.906154690000051 ], [ 11.47242272200009, 53.968817450000074 ], [ 11.497894727000073, 53.981838283000059 ], [ 11.491709832000083, 54.002346096000053 ], [ 11.525889519000089, 54.022772528000075 ], [ 11.519053582000083, 54.036444403000075 ], [ 11.573496941000087, 54.039048570000034 ], [ 11.624522332000083, 54.083644924000055 ], [ 11.625254754000082, 54.109808661000045 ], [ 11.689707879000082, 54.155218817000048 ], [ 11.81226647200009, 54.149807033000059 ], [ 12.088145379000082, 54.194077867000033 ], [ 12.091644727000073, 54.113999742000033 ], [ 12.11500084700009, 54.097886460000041 ], [ 12.09506269600007, 54.145697333000044 ], [ 12.142832879000082, 54.180487372000073 ], [ 12.10132897200009, 54.173651434000078 ], [ 12.108897332000083, 54.183010158000059 ], [ 12.18685957100007, 54.243353583000044 ], [ 12.342133009000065, 54.303941148000035 ], [ 12.501963738000086, 54.473578192000048 ], [ 12.533864780000044, 54.488267320000034 ], [ 12.548350457000083, 54.462062893000052 ], [ 12.59148196700005, 54.451727606000077 ], [ 12.879649285000085, 54.448797919000071 ], [ 12.921153191000087, 54.433498440000051 ], [ 12.87077884200005, 54.416815497000073 ], [ 12.694590691000087, 54.433661200000074 ], [ 12.624196811000047, 54.422919012000079 ], [ 12.58171634200005, 54.406398830000057 ], [ 12.594737175000091, 54.385891018000052 ], [ 12.55404707100007, 54.390814520000049 ], [ 12.52702884200005, 54.372259833000044 ], [ 12.490977410000085, 54.39008209800005 ], [ 12.438487175000091, 54.387518622000073 ], [ 12.418467644000089, 54.360663153000075 ], [ 12.424001498000052, 54.344916083000044 ], [ 12.396739129000082, 54.351752020000049 ], [ 12.391612175000091, 54.321112372000073 ], [ 12.362559441000087, 54.310207424000055 ], [ 12.380137566000087, 54.277085679000038 ], [ 12.36882571700005, 54.269191799000055 ], [ 12.412445509000065, 54.25141022300005 ], [ 12.458181186000047, 54.255560614000046 ], [ 12.410329623000052, 54.269191799000055 ], [ 12.47242272200009, 54.310207424000055 ], [ 12.478688998000052, 54.331854559000078 ], [ 12.560557488000086, 54.358587958000044 ], [ 12.54078209700009, 54.372259833000044 ], [ 12.592946811000047, 54.369330145000049 ], [ 12.677256707000083, 54.392075914000031 ], [ 12.680837436000047, 54.410874742000033 ], [ 12.717539910000085, 54.413804429000038 ], [ 12.692393425000091, 54.396185614000046 ], [ 12.684092644000089, 54.372259833000044 ], [ 12.704600457000083, 54.399603583000044 ], [ 12.735036655000044, 54.378159898000035 ], [ 12.787119988000086, 54.392075914000031 ], [ 12.81804446700005, 54.357977606000077 ], [ 12.854665561000047, 54.357855536000045 ], [ 12.92937259200005, 54.41437409100007 ], [ 13.034190300000091, 54.433661200000074 ], [ 13.021494988000086, 54.426459052000041 ], [ 13.028575066000087, 54.401841539000031 ], [ 13.095550977000073, 54.372259833000044 ], [ 13.076670769000089, 54.352525132000039 ], [ 13.11491946700005, 54.280015367000033 ], [ 13.170664910000085, 54.276597398000035 ], [ 13.143402540000068, 54.263006903000075 ], [ 13.28882897200009, 54.234279690000051 ], [ 13.348887566000087, 54.180487372000073 ], [ 13.321543816000087, 54.166815497000073 ], [ 13.403493686000047, 54.173651434000078 ], [ 13.382985873000052, 54.153143622000073 ], [ 13.41773522200009, 54.153143622000073 ], [ 13.465098504000082, 54.098456122000073 ], [ 13.507090691000087, 54.091050523000035 ], [ 13.479258660000085, 54.125189520000049 ], [ 13.602712436000047, 54.139471747000073 ], [ 13.711924675000091, 54.173651434000078 ], [ 13.698252800000091, 54.153143622000073 ], [ 13.808116082000083, 54.104681708000044 ], [ 13.77320397200009, 54.04633209800005 ], [ 13.746104363000086, 54.036444403000075 ], [ 13.838633660000085, 53.986314195000034 ], [ 13.848643425000091, 53.955552476000037 ], [ 13.90756269600007, 53.933539130000042 ], [ 13.818532748000052, 53.877997137000079 ], [ 13.817067905000044, 53.852932033000059 ], [ 14.037445509000065, 53.755275783000059 ], [ 14.186534050000091, 53.739813544000071 ], [ 14.23414147200009, 53.761786200000074 ], [ 14.264496290000068, 53.751613674000055 ], [ 14.25953209700009, 53.72797272300005 ], [ 14.212738477000073, 53.708075262000079 ], [ 14.263900720257396, 53.699976159680759 ], [ 14.260968872000149, 53.656209209000039 ], [ 14.297039022000149, 53.597763164000057 ], [ 14.304170370000094, 53.508517965000109 ], [ 14.359877564000044, 53.444077454000094 ], [ 14.403285767000028, 53.278790385 ], [ 14.441629680000062, 53.251841126000059 ], [ 14.380651489000087, 53.189855245000032 ], [ 14.389539835000107, 53.131667583000095 ], [ 14.343341105000036, 53.048623555000049 ], [ 14.144490193000109, 52.959920960000048 ], [ 14.164954061000088, 52.895661317000091 ], [ 14.150484660000131, 52.86462961900007 ], [ 14.12392297300002, 52.850651144000054 ], [ 14.382201782000095, 52.738151551 ], [ 14.431914510000098, 52.686087546000053 ], [ 14.644821411000066, 52.576921082000084 ], [ 14.609061320000137, 52.517803243000017 ], [ 14.632315715000061, 52.49674509800009 ], [ 14.591594686000093, 52.449797059000034 ], [ 14.539814901000113, 52.421865947000057 ], [ 14.54539595600005, 52.382152608000055 ], [ 14.590147746000099, 52.309418030000089 ], [ 14.584153280000066, 52.291227926000047 ], [ 14.712414184000124, 52.235908305000024 ], [ 14.69257043500005, 52.199579773000053 ], [ 14.707039836000149, 52.179451803000077 ], [ 14.686369263000131, 52.121031596000122 ], [ 14.76140344300012, 52.076667379000057 ], [ 14.699081665000108, 51.992512309000105 ], [ 14.687092733000043, 51.911897074000095 ], [ 14.595935507000064, 51.842418112000118 ], [ 14.585806925000043, 51.803893332000044 ], [ 14.634176066000066, 51.769011739000078 ], [ 14.648438761000136, 51.717206116000099 ], [ 14.732464640000074, 51.658346659000088 ], [ 14.743936808000086, 51.606644390000056 ], [ 14.71272424300011, 51.567421977 ], [ 14.710037068000076, 51.5302407840001 ], [ 14.910955038000083, 51.468978373000041 ], [ 14.95539676900006, 51.435414530000045 ], [ 14.960977824000054, 51.335291443000031 ], [ 15.019475545000148, 51.271677755000056 ], [ 15.022059367000054, 51.236770325000052 ], [ 14.991363566000103, 51.18896962500007 ], [ 14.955293417000121, 51.064041850000123 ], [ 14.910644979000097, 50.992650859000022 ], [ 14.860208781000068, 50.916841533000124 ], [ 14.810496053000065, 50.877050680000124 ], [ 14.785071248000065, 50.820051575000022 ], [ 14.737528931000043, 50.810698141000088 ], [ 14.61319543500008, 50.845579732000076 ], [ 14.629215128000112, 50.920717266000068 ], [ 14.550356893000099, 50.912087301000028 ], [ 14.574334758000106, 50.97549428300006 ], [ 14.502917928000102, 51.008515524000032 ], [ 14.482144002000069, 51.037195943000128 ], [ 14.462093547000109, 51.019651794000069 ], [ 14.39780806400006, 51.013114726000097 ], [ 14.356570272000056, 51.032338359 ], [ 14.287530558000071, 51.03683420800003 ], [ 14.238334595000111, 50.982470602000049 ], [ 14.303756958000093, 50.969706523000085 ], [ 14.292801554000107, 50.95348012400008 ], [ 14.381891724000127, 50.920872294000034 ], [ 14.375897257000076, 50.895964254000049 ], [ 14.34654504400001, 50.880202942000082 ], [ 14.232133423000022, 50.879376119000042 ], [ 14.190792277000099, 50.847905172000097 ], [ 14.034936157000061, 50.802584941000092 ], [ 13.959591919000076, 50.802068177000038 ], [ 13.892515910000043, 50.780415752000053 ], [ 13.882180624000057, 50.742743632000028 ], [ 13.834534953000087, 50.723675029000034 ], [ 13.556567423000075, 50.706725159000044 ], [ 13.515639689000068, 50.691015524000065 ], [ 13.523287801000038, 50.662180075000052 ], [ 13.447943563000052, 50.59727447600001 ], [ 13.407015828000056, 50.601305237000091 ], [ 13.368775268000149, 50.62833201100004 ], [ 13.321853068000109, 50.60239044300009 ], [ 13.305626668000087, 50.575777080000066 ], [ 13.232349487000079, 50.582029928000068 ], [ 13.199069865000126, 50.525340882000066 ], [ 13.160105835000138, 50.497022197000049 ], [ 13.00962406400015, 50.492681376000078 ], [ 12.996601603000045, 50.433666891000044 ], [ 12.952573283000078, 50.404159648000032 ], [ 12.817387736000029, 50.443020325000091 ], [ 12.737909383000044, 50.43154815700008 ], [ 12.691814006000101, 50.39465118400004 ], [ 12.510223022000076, 50.38876007100005 ], [ 12.475083048000045, 50.369433085000097 ], [ 12.466814819000092, 50.341889547 ], [ 12.398188517000051, 50.315172831000055 ], [ 12.336486857000068, 50.258587138000067 ], [ 12.308684936000105, 50.217090963000018 ], [ 12.314369344000056, 50.167326559000074 ], [ 12.300416707000068, 50.160815328000112 ], [ 12.273234904000077, 50.172339173000054 ], [ 12.254321330000039, 50.217401021000072 ], [ 12.229930054000107, 50.234815979000118 ], [ 12.239645223000139, 50.256571758000021 ], [ 12.178046916000113, 50.26876739500004 ], [ 12.168538452000121, 50.302977193000046 ], [ 12.149314819000011, 50.311710511000015 ], [ 12.076140991000045, 50.315172831000055 ], [ 12.110970906000091, 50.276622213000067 ], [ 12.079551635000144, 50.242722473000057 ], [ 12.175049682000093, 50.182622783000042 ], [ 12.179183797000121, 50.117975566000084 ], [ 12.232513875000109, 50.080510152 ], [ 12.246879923000108, 50.04495676700013 ], [ 12.451311889000067, 49.980567932000028 ], [ 12.468158406000043, 49.970232646000042 ], [ 12.462680705000139, 49.931268616000054 ], [ 12.524072306000051, 49.904965312000101 ], [ 12.482524454000043, 49.827243958000068 ], [ 12.46247399900011, 49.831223043000065 ], [ 12.452655477000121, 49.779701640000056 ], [ 12.38361576300008, 49.74285634400006 ], [ 12.419582560000038, 49.700223287000071 ], [ 12.49637373900012, 49.669992575000052 ], [ 12.501954793000039, 49.619711406000093 ], [ 12.546603230000073, 49.595578512000131 ], [ 12.58288008700012, 49.522404683000062 ], [ 12.622980998000116, 49.50984731000004 ], [ 12.643548218000092, 49.429490458000018 ], [ 12.729331095000106, 49.391146546000087 ], [ 12.777906941000111, 49.332545472000064 ], [ 12.856661825000089, 49.32221018500006 ], [ 12.884670451000119, 49.339573467000079 ], [ 12.999805542000104, 49.294925029000055 ], [ 13.011277710000115, 49.267794902000063 ], [ 13.178502645000066, 49.118346660000057 ], [ 13.299528849000126, 49.093645325000054 ], [ 13.372392618000049, 49.03850657200006 ], [ 13.398540893000131, 48.977683411000058 ], [ 13.458898966000049, 48.94502390600006 ], [ 13.482256713000083, 48.93763417600006 ], [ 13.515949747000036, 48.970242005000031 ], [ 13.608657267000126, 48.946160787000068 ], [ 13.637389363000125, 48.893450826000063 ], [ 13.724670858000138, 48.867302552000055 ], [ 13.815724731000074, 48.766430156000055 ], [ 13.783581991000062, 48.715270488000058 ], [ 13.816861612000082, 48.695581767000093 ], [ 13.800945272000064, 48.675221253000061 ], [ 13.802392211000068, 48.611710918000099 ], [ 13.774280233000127, 48.569207052000067 ], [ 13.733869263000145, 48.559776103 ], [ 13.716505981000125, 48.521690572000054 ], [ 13.624366902000105, 48.565357158000026 ], [ 13.520703979000132, 48.58458079100005 ], [ 13.454558146000068, 48.57344451900012 ], [ 13.440088745000111, 48.560964661000028 ], [ 13.459209025000121, 48.516393738000019 ], [ 13.405568888000062, 48.37658315100002 ], [ 13.274207397000055, 48.307104187000036 ], [ 13.032775106000145, 48.26356679300001 ], [ 12.933039591000068, 48.209254863000055 ], [ 12.862552938000107, 48.196645813000046 ], [ 12.738942912000113, 48.113446757000034 ], [ 12.760233602000113, 48.064870911000028 ], [ 12.830616903000134, 48.015468242000011 ], [ 12.862036173000149, 47.962551575000035 ], [ 12.931075887000105, 47.924879456 ], [ 12.99122725400008, 47.847106426000053 ], [ 12.892008504000103, 47.723548076 ], [ 12.964045451000089, 47.705357971000055 ], [ 13.019855998000139, 47.712928569 ], [ 13.072049194000044, 47.659469299000065 ], [ 13.072049194000044, 47.622417298000116 ], [ 13.038252807000049, 47.584021709000083 ], [ 13.028124227000092, 47.541647034000064 ], [ 13.03732263100008, 47.49304535000006 ], [ 13.001872599000052, 47.466018576000025 ], [ 12.931592651000074, 47.473511658000049 ], [ 12.778940470000094, 47.55482452400004 ], [ 12.785865112000067, 47.602676901000038 ], [ 12.81315026900009, 47.611823629000028 ], [ 12.751655314000061, 47.649392396000039 ], [ 12.761990600000075, 47.666859029000094 ], [ 12.653056681000095, 47.675127259000035 ], [ 12.496580444000074, 47.628902690000061 ], [ 12.44469730600008, 47.656291199000023 ], [ 12.424130086000076, 47.691560365 ], [ 12.238715047000113, 47.678899639000051 ], [ 12.223315470000017, 47.695901184000078 ], [ 12.242229044000055, 47.732023011000095 ], [ 12.176599976000119, 47.705823059000082 ], [ 12.20512536600009, 47.672285055000074 ], [ 12.206779012000112, 47.645568339000093 ], [ 12.173602742000099, 47.605079855 ], [ 11.935891154000018, 47.610738424000047 ], [ 11.851968627000105, 47.599162903 ], [ 11.820342651000118, 47.575288391000115 ], [ 11.620458211000113, 47.589654440000018 ], [ 11.589142293000094, 47.570379131000081 ], [ 11.551211792000089, 47.513690084000061 ], [ 11.412615600000038, 47.506093648 ], [ 11.36548669400014, 47.469325867000023 ], [ 11.388637736000135, 47.462220357 ], [ 11.383883504000039, 47.444857076000076 ], [ 11.305645385000076, 47.435400290000089 ], [ 11.237019083000121, 47.393955790000049 ], [ 11.213041219000019, 47.395816142000044 ], [ 11.215211629000095, 47.422997945000034 ], [ 11.193817587000098, 47.42894073500004 ], [ 11.083746785000102, 47.389511618000128 ], [ 10.979463745000146, 47.390545146000093 ], [ 10.955279175000072, 47.409613750000076 ], [ 10.959826701000111, 47.432506409000027 ], [ 10.858437540000068, 47.485164693000016 ], [ 10.851616252000014, 47.493097026000086 ], [ 10.892233928000053, 47.514878643000102 ], [ 10.858644247000115, 47.530665792 ], [ 10.760769083000127, 47.513638407000045 ], [ 10.583725627000121, 47.562472636000038 ], [ 10.536906779000105, 47.529864808000056 ], [ 10.482543172000135, 47.532862040000069 ], [ 10.453501017000065, 47.546246236000016 ], [ 10.457118368000124, 47.579241638000084 ], [ 10.429213094000147, 47.577019552000067 ], [ 10.41422692900008, 47.573014628000081 ], [ 10.430970093000042, 47.542163798 ], [ 10.41960127800013, 47.49304535000006 ], [ 10.447609904000046, 47.472581483000099 ], [ 10.451950724000113, 47.438759257000115 ], [ 10.428282918000093, 47.3960486860001 ], [ 10.371645549000107, 47.367394104000127 ], [ 10.305913126000064, 47.302178447000088 ], [ 10.239353882000074, 47.277735494000055 ], [ 10.159875529000061, 47.271120911000068 ], [ 10.190778036000069, 47.298251038000032 ], [ 10.209278198000078, 47.372484233000094 ], [ 10.082877644000064, 47.359074199000062 ], [ 10.053215373000086, 47.404859518000094 ], [ 10.07595300300008, 47.416874288000074 ], [ 10.071818888000053, 47.439120993000117 ], [ 10.022622924000075, 47.487955221000064 ], [ 9.982625366000093, 47.481030579 ], [ 9.945935099000053, 47.540768534000037 ], [ 9.833487182000084, 47.534619039000049 ], [ 9.81312666900007, 47.541750387 ], [ 9.807959025000059, 47.576321920000098 ], [ 9.782120809000048, 47.588414205000063 ], [ 9.75266524200012, 47.582058004000046 ], [ 9.7039860430001, 47.531415100000075 ], [ 9.612622111000064, 47.521880799000101 ], [ 9.549886922000042, 47.533533834000067 ], [ 9.273211304000142, 47.650090027000047 ], [ 9.196936890000131, 47.656136170000067 ], [ 9.183397664000069, 47.670424704000069 ], [ 9.016586141000118, 47.678899639000051 ], [ 8.945376017000086, 47.654301656000072 ], [ 8.881710652000095, 47.656136170000067 ], [ 8.837785685000142, 47.680837504000081 ], [ 8.856079142000112, 47.690681864000069 ], [ 8.797581420000114, 47.72003407900003 ], [ 8.770709676000109, 47.720860901000052 ], [ 8.769882853000098, 47.695074361000067 ], [ 8.71706954000004, 47.694557597000099 ], [ 8.700429728000131, 47.723496399000069 ], [ 8.71314213000008, 47.757421977 ], [ 8.681929565000104, 47.758739726000059 ], [ 8.644102417000113, 47.791011658000016 ], [ 8.617437378000091, 47.757318624000064 ], [ 8.601624390000069, 47.794603170000087 ], [ 8.558216187000085, 47.801166077000076 ], [ 8.542299846000077, 47.795016581000098 ], [ 8.55160160300008, 47.779255270000121 ], [ 8.463648315000086, 47.763907370000069 ], [ 8.437913452000089, 47.723186341000101 ], [ 8.392128133000142, 47.699518535000053 ], [ 8.391301310000131, 47.665463765000098 ], [ 8.458273966000121, 47.639883932000046 ], [ 8.568241414000113, 47.662931621000027 ], [ 8.607308797000115, 47.656291199000023 ], [ 8.601624390000069, 47.632597555000089 ], [ 8.580333699000107, 47.639005432000019 ], [ 8.574132527000103, 47.592444967000077 ], [ 8.522352742000038, 47.621900534000062 ], [ 8.461787964000081, 47.606139221 ], [ 8.448868856000075, 47.584280091000053 ], [ 8.354094279000037, 47.581024475000063 ], [ 8.306345255000053, 47.592186585 ], [ 8.288568562000108, 47.6158027150001 ], [ 8.232964721000116, 47.621952210000089 ], [ 8.17901452600006, 47.6158027150001 ], [ 8.087237182000109, 47.567381897000061 ], [ 8.042278686000088, 47.560560608000102 ], [ 7.91215743000015, 47.560560608000102 ], [ 7.898204794000065, 47.587845764000022 ], [ 7.819656616000117, 47.595338847000065 ], [ 7.766739949000055, 47.555961406000065 ], [ 7.661423380000116, 47.546246236000016 ], [ 7.609746948000094, 47.564746399000043 ], [ 7.635895223000091, 47.564591370000088 ], [ 7.65966638200004, 47.596579082000076 ], [ 7.586028488000125, 47.584618544000065 ], [ 7.590316609000098, 47.607947896000084 ], [ 7.514662312000041, 47.685798442000035 ], [ 7.511871785000096, 47.707321676000092 ], [ 7.537813355000139, 47.731816304000048 ], [ 7.525927775000099, 47.783156840000075 ], [ 7.542877645000118, 47.829433086000066 ], [ 7.561997925000099, 47.839225769000038 ], [ 7.55900069100008, 47.882711488000027 ], [ 7.584942261000037, 47.940408224000109 ], [ 7.621115763000063, 47.971439922000044 ], [ 7.618945353000072, 48.00265248700002 ], [ 7.575743856000145, 48.053708802000088 ], [ 7.578947795000119, 48.114480286000017 ], [ 7.613364298000079, 48.179205018000104 ], [ 7.687158243000113, 48.252921448000038 ], [ 7.702454467000081, 48.311186625000047 ], [ 7.75072025500009, 48.341365662000058 ], [ 7.738317912000099, 48.406607158000085 ], [ 7.776455119000076, 48.498177796000064 ], [ 7.813455444000027, 48.519468486000036 ], [ 7.801673217000115, 48.547580465000081 ], [ 7.810251506000071, 48.615018209000098 ], [ 7.852419475000119, 48.658684794000081 ], [ 7.959182983000119, 48.72136830700002 ], [ 7.970138387000105, 48.757283427000075 ], [ 8.017267293000117, 48.761830954000104 ], [ 8.038764689000061, 48.790769756000074 ], [ 8.090337769000143, 48.807512920000093 ], [ 8.200305216000032, 48.958563131000048 ], [ 8.090441121000083, 48.979182028000068 ], [ 7.931897827000114, 49.034837546000077 ], [ 7.773664591000113, 49.048118388 ], [ 7.634965047000037, 49.037783101000073 ], [ 7.608610066000068, 49.061967672000051 ], [ 7.52086348500012, 49.083671774000052 ], [ 7.471047404000103, 49.128320212000077 ], [ 7.476111694000082, 49.15152292900008 ], [ 7.410482625000043, 49.168937887000098 ], [ 7.350951376000069, 49.159171042000068 ], [ 7.33400150600005, 49.13415964800005 ], [ 7.297104533000038, 49.12811350500003 ], [ 7.274366902000054, 49.105014140000051 ], [ 7.154994344000016, 49.114419251000086 ], [ 7.079856812000116, 49.142014465 ], [ 7.073242228000112, 49.120310364000019 ], [ 7.042546427000076, 49.107597962000042 ], [ 7.020532267000078, 49.11896677700004 ], [ 7.009473510000078, 49.181701965000073 ], [ 6.914388876000146, 49.206661683000064 ], [ 6.833463583000054, 49.209452210000038 ], [ 6.839044637000086, 49.162788392000053 ], [ 6.821784709000099, 49.147750550000055 ], [ 6.713780965000126, 49.158860982000064 ], [ 6.702515503000086, 49.213638001000064 ], [ 6.680604696000046, 49.207488505000086 ], [ 6.639676961000106, 49.27115387 ], [ 6.556426228000078, 49.326395976000086 ], [ 6.555599406000056, 49.347169902000033 ], [ 6.577716919000068, 49.355799866000083 ], [ 6.518805786000058, 49.402153626000072 ], [ 6.511674438000114, 49.424736226 ], [ 6.402740519000133, 49.465457255000089 ], [ 6.345307071000093, 49.455348652000097 ], [ 6.350754028000097, 49.566588034000048 ] ] ], [ [ [ 6.72242272200009, 53.590765692000048 ], [ 6.756521030000044, 53.562892971000053 ], [ 6.67709394600007, 53.57562897300005 ], [ 6.65951582100007, 53.599107164000031 ], [ 6.784678582000083, 53.620062567000048 ], [ 6.798106316000087, 53.604437567000048 ], [ 6.72242272200009, 53.590765692000048 ] ] ], [ [ [ 6.873789910000085, 53.672756252000056 ], [ 7.047048373000052, 53.694159247000073 ], [ 7.085459832000083, 53.686997789000031 ], [ 6.873789910000085, 53.672756252000056 ] ] ], [ [ [ 7.342295769000089, 53.72211334800005 ], [ 7.17359459700009, 53.701402085000041 ], [ 7.133148634000065, 53.708075262000079 ], [ 7.232920769000089, 53.729437567000048 ], [ 7.342295769000089, 53.72211334800005 ] ] ], [ [ [ 8.195974155000044, 53.72797272300005 ], [ 8.150889519000089, 53.71430084800005 ], [ 8.120127800000091, 53.71430084800005 ], [ 8.152354363000086, 53.739162502000056 ], [ 8.195974155000044, 53.72797272300005 ] ] ], [ [ [ 7.432383660000085, 53.72406647300005 ], [ 7.42123457100007, 53.721136786000045 ], [ 7.36654707100007, 53.72797272300005 ], [ 7.403493686000047, 53.736721096000053 ], [ 7.432383660000085, 53.72406647300005 ] ] ], [ [ [ 7.623301629000082, 53.749986070000034 ], [ 7.513926629000082, 53.745510158000059 ], [ 7.511241082000083, 53.72797272300005 ], [ 7.481944207000083, 53.727118231000077 ], [ 7.469574415000068, 53.745347398000035 ], [ 7.486989780000044, 53.761419989000046 ], [ 7.606618686000047, 53.762600002000056 ], [ 7.623301629000082, 53.749986070000034 ] ] ], [ [ [ 7.812836134000065, 53.783148505000042 ], [ 7.748220248000052, 53.760931708000044 ], [ 7.660899285000085, 53.762111721000053 ], [ 7.72828209700009, 53.78656647300005 ], [ 7.812836134000065, 53.783148505000042 ] ] ], [ [ [ 7.87671959700009, 53.794867255000042 ], [ 7.955577019000089, 53.782904364000046 ], [ 7.854502800000091, 53.784572658000059 ], [ 7.87671959700009, 53.794867255000042 ] ] ], [ [ [ 7.879893425000091, 54.193915106000077 ], [ 7.894541863000086, 54.194647528000075 ], [ 7.904144727000073, 54.180405992000033 ], [ 7.899180535000085, 54.178168036000045 ], [ 7.879893425000091, 54.193915106000077 ] ] ], [ [ [ 7.929860873000052, 54.195298570000034 ], [ 7.933441602000073, 54.189886786000045 ], [ 7.912364129000082, 54.192287502000056 ], [ 7.929860873000052, 54.195298570000034 ] ] ], [ [ [ 8.641286655000044, 54.492377020000049 ], [ 8.606130405000044, 54.499212958000044 ], [ 8.602061394000089, 54.529771226000037 ], [ 8.69890384200005, 54.558579820000034 ], [ 8.692881707000083, 54.523260809000078 ], [ 8.641286655000044, 54.492377020000049 ] ] ], [ [ [ 8.353688998000052, 54.618963934000078 ], [ 8.291514519000089, 54.667059637000079 ], [ 8.360362175000091, 54.714829820000034 ], [ 8.332367384000065, 54.693793036000045 ], [ 8.401377800000091, 54.632961330000057 ], [ 8.353688998000052, 54.618963934000078 ] ] ], [ [ [ 8.574066602000073, 54.694403387000079 ], [ 8.485199415000068, 54.688055731000077 ], [ 8.394541863000086, 54.714829820000034 ], [ 8.436778191000087, 54.748480536000045 ], [ 8.553233269000089, 54.754461981000077 ], [ 8.593760613000086, 54.728501695000034 ], [ 8.574066602000073, 54.694403387000079 ] ] ], [ [ [ 8.504405144000089, 54.88617584800005 ], [ 8.446055535000085, 54.866278387000079 ], [ 8.353526238000086, 54.879339911000045 ], [ 8.302012566000087, 54.862616278000075 ], [ 8.284434441000087, 54.742377020000049 ], [ 8.288584832000083, 54.891302802000041 ], [ 8.373708530000044, 55.034979559000078 ], [ 8.41578209700009, 55.065334377000056 ], [ 8.463389519000089, 55.050685940000051 ], [ 8.394541863000086, 55.043850002000056 ], [ 8.430430535000085, 55.030015367000033 ], [ 8.361989780000044, 54.986802476000037 ], [ 8.354502800000091, 54.91274648600006 ], [ 8.436534050000091, 54.887274481000077 ], [ 8.654470248000052, 54.893622137000079 ], [ 8.629405144000089, 54.882147528000075 ], [ 8.504405144000089, 54.88617584800005 ] ] ], [ [ [ 11.468272332000083, 53.970689195000034 ], [ 11.445323113000086, 53.961127020000049 ], [ 11.44703209700009, 53.997137762000079 ], [ 11.423106316000087, 53.967718817000048 ], [ 11.375661655000044, 53.981838283000059 ], [ 11.426605665000068, 54.022935289000031 ], [ 11.497894727000073, 54.022772528000075 ], [ 11.468272332000083, 53.970689195000034 ] ] ], [ [ [ 14.200818737000134, 53.878157293000029 ], [ 14.048350457000083, 53.879380601000037 ], [ 13.938487175000091, 53.844671942000048 ], [ 13.875254754000082, 53.84406159100007 ], [ 13.821787957000083, 53.865139065000051 ], [ 13.931651238000086, 53.899318752000056 ], [ 13.938975457000083, 53.928208726000037 ], [ 13.901866082000083, 53.969794012000079 ], [ 13.904470248000052, 53.995428778000075 ], [ 13.972666863000086, 53.989243882000039 ], [ 13.958994988000086, 53.94086334800005 ], [ 13.987478061000047, 53.961411851000037 ], [ 14.027842644000089, 53.961371161000045 ], [ 14.014333530000044, 53.947088934000078 ], [ 14.048350457000083, 53.94086334800005 ], [ 14.051280144000089, 54.005072333000044 ], [ 13.946055535000085, 54.066595770000049 ], [ 13.915863477000073, 54.056382554000038 ], [ 13.924815300000091, 54.036444403000075 ], [ 13.890879754000082, 54.010158596000053 ], [ 13.855967644000089, 54.002346096000053 ], [ 13.87631269600007, 54.036444403000075 ], [ 13.863617384000065, 54.049994208000044 ], [ 13.794200066000087, 54.018133856000077 ], [ 13.774099155000044, 54.022772528000075 ], [ 13.814952019000089, 54.101263739000046 ], [ 13.752940300000091, 54.153143622000073 ], [ 13.762217644000089, 54.164455471000053 ], [ 13.814952019000089, 54.173651434000078 ], [ 13.88249759200005, 54.102443752000056 ], [ 14.016612175000091, 54.06000397300005 ], [ 14.210052931000064, 53.938462632000039 ], [ 14.175289348000092, 53.906478170000028 ], [ 14.200818737000134, 53.878157293000029 ] ] ], [ [ [ 11.615896030000044, 54.112127997000073 ], [ 11.533946160000085, 54.05695221600007 ], [ 11.533946160000085, 54.084865627000056 ], [ 11.615896030000044, 54.112127997000073 ] ] ], [ [ [ 13.740082227000073, 54.329820054000038 ], [ 13.712738477000073, 54.278998114000046 ], [ 13.690928582000083, 54.28351471600007 ], [ 13.711924675000091, 54.28656647300005 ], [ 13.711924675000091, 54.303941148000035 ], [ 13.651133660000085, 54.29718659100007 ], [ 13.711924675000091, 54.331854559000078 ], [ 13.61695397200009, 54.317613023000035 ], [ 13.690928582000083, 54.351752020000049 ], [ 13.626800977000073, 54.339097398000035 ], [ 13.59929446700005, 54.351752020000049 ], [ 13.49968509200005, 54.344916083000044 ], [ 13.406097852000073, 54.285223700000074 ], [ 13.359629754000082, 54.275458075000074 ], [ 13.355723504000082, 54.248724677000041 ], [ 13.363129102000073, 54.263006903000075 ], [ 13.41773522200009, 54.266058661000045 ], [ 13.423024936000047, 54.23273346600007 ], [ 13.407237175000091, 54.228216864000046 ], [ 13.311534050000091, 54.251125393000052 ], [ 13.335215691000087, 54.28351471600007 ], [ 13.314707879000082, 54.263006903000075 ], [ 13.267914259000065, 54.25649648600006 ], [ 13.210134311000047, 54.275824286000045 ], [ 13.20484459700009, 54.29718659100007 ], [ 13.149668816000087, 54.290269273000035 ], [ 13.148936394000089, 54.304754950000074 ], [ 13.17750084700009, 54.310207424000055 ], [ 13.115489129000082, 54.338080145000049 ], [ 13.148936394000089, 54.37726471600007 ], [ 13.223317905000044, 54.37250397300005 ], [ 13.266856316000087, 54.385891018000052 ], [ 13.239268425000091, 54.393622137000079 ], [ 13.239024285000085, 54.420070705000057 ], [ 13.211599155000044, 54.43109772300005 ], [ 13.156993035000085, 54.426825262000079 ], [ 13.181813998000052, 54.453029690000051 ], [ 13.27312259200005, 54.482123114000046 ], [ 13.233246290000068, 54.493068752000056 ], [ 13.232758009000065, 54.51626211100006 ], [ 13.185394727000073, 54.508286851000037 ], [ 13.143402540000068, 54.542914130000042 ], [ 13.25953209700009, 54.553778387000079 ], [ 13.297862175000091, 54.519680080000057 ], [ 13.301036004000082, 54.550360419000071 ], [ 13.369395379000082, 54.585150458000044 ], [ 13.342051629000082, 54.550360419000071 ], [ 13.363129102000073, 54.542914130000042 ], [ 13.348887566000087, 54.523667710000041 ], [ 13.383799675000091, 54.53188711100006 ], [ 13.389821811000047, 54.542914130000042 ], [ 13.363129102000073, 54.550360419000071 ], [ 13.37671959700009, 54.564642645000049 ], [ 13.430674675000091, 54.492743231000077 ], [ 13.507090691000087, 54.488267320000034 ], [ 13.520762566000087, 54.523667710000041 ], [ 13.49968509200005, 54.557196356000077 ], [ 13.520762566000087, 54.570786851000037 ], [ 13.441416863000086, 54.557196356000077 ], [ 13.369151238000086, 54.612127997000073 ], [ 13.273285352000073, 54.560939846000053 ], [ 13.25326582100007, 54.564642645000049 ], [ 13.256846550000091, 54.594916083000044 ], [ 13.293467644000089, 54.642279364000046 ], [ 13.224782748000052, 54.634955145000049 ], [ 13.25359134200005, 54.665025132000039 ], [ 13.390798373000052, 54.688177802000041 ], [ 13.44507897200009, 54.680080471000053 ], [ 13.382985873000052, 54.636379299000055 ], [ 13.407725457000083, 54.593410549000055 ], [ 13.466319207000083, 54.576890367000033 ], [ 13.595957879000082, 54.591376044000071 ], [ 13.670664910000085, 54.566229559000078 ], [ 13.677256707000083, 54.54047272300005 ], [ 13.584808790000068, 54.486517645000049 ], [ 13.579112175000091, 54.455064195000034 ], [ 13.609548373000052, 54.413804429000038 ], [ 13.698252800000091, 54.392075914000031 ], [ 13.766449415000068, 54.344916083000044 ], [ 13.740082227000073, 54.329820054000038 ] ] ], [ [ [ 11.17904707100007, 54.414211330000057 ], [ 11.11264082100007, 54.415228583000044 ], [ 11.098643425000091, 54.451646226000037 ], [ 11.032481316000087, 54.447333075000074 ], [ 11.005707227000073, 54.468451239000046 ], [ 11.033702019000089, 54.508856512000079 ], [ 11.121267123000052, 54.535956122000073 ], [ 11.23210696700005, 54.501654364000046 ], [ 11.31421959700009, 54.413804429000038 ], [ 11.188487175000091, 54.426174221000053 ], [ 11.170176629000082, 54.420070705000057 ], [ 11.17904707100007, 54.414211330000057 ] ] ], [ [ [ 8.925791863000086, 54.486761786000045 ], [ 8.844493035000085, 54.466498114000046 ], [ 8.812836134000065, 54.482123114000046 ], [ 8.82553144600007, 54.491197007000039 ], [ 8.812836134000065, 54.501939195000034 ], [ 8.879649285000085, 54.529120184000078 ], [ 8.963145379000082, 54.523667710000041 ], [ 8.925791863000086, 54.486761786000045 ] ] ], [ [ [ 13.081065300000091, 54.517157294000071 ], [ 13.061371290000068, 54.468451239000046 ], [ 13.102305535000085, 54.596096096000053 ], [ 13.151052280000044, 54.60492584800005 ], [ 13.149668816000087, 54.577704169000071 ], [ 13.143402540000068, 54.598130601000037 ], [ 13.11890709700009, 54.586411851000037 ], [ 13.102549675000091, 54.52993398600006 ], [ 13.081065300000091, 54.517157294000071 ] ] ] ] } }
]
}
